NORAD_CAT_ID,OBJECT_NAME,OBJECT_TYPE,EPOCH,MEAN_MOTION,ECCENTRICITY,INCLINATION,RA_OF_ASC_NODE,ARG_OF_PERICENTER,MEAN_ANOMALY,BSTAR,MEAN_MOTION_DOT,MEAN_MOTION_DDOT,TLE_LINE0,TLE_LINE1,TLE_LINE2,SEMIMAJOR_AXIS,PERIOD,APOGEE,PERIGEE,DECAYED
50841.0,STARLINK-3300,PAYLOAD,2022-07-30 17:05:21,15.08836411,0.0001556,53.2194,335.7488,54.433,305.6807,2.5815e-05,1.23e-06,0.0,0 STARLINK-3300,1 50841U 22001AQ  22211.71205325  .00000123  00000-0  25815-4 0  9997,2 50841  53.2194 335.7488 0001556  54.4330 305.6807 15.08836411 31299,6917.891,95.438,540.8330000000002,538.68,0.0
50841.0,STARLINK-3300,PAYLOAD,2022-07-31 01:02:16,15.08839834,0.0001558,53.2194,334.2622,54.3757,305.738,3.5054e-05,2.7000000000000004e-06,0.0,0 STARLINK-3300,1 50841U 22001AQ  22212.04325119  .00000270  00000-0  35054-4 0  9997,2 50841  53.2194 334.2622 0001558  54.3757 305.7380 15.08839834 32646,6917.880999999999,95.438,540.8240000000002,538.668,0.0
50841.0,STARLINK-3300,PAYLOAD,2022-07-31 10:34:35,15.08837022,0.000156,53.2194,332.4779,54.2754,305.8383,0.00011985,1.62e-05,0.0,0 STARLINK-3300,1 50841U 22001AQ  22212.44069007  .00001620  00000-0  11985-3 0  9998,2 50841  53.2194 332.4779 0001560  54.2754 305.8383 15.08837022 31402,6917.889,95.438,540.8340000000002,538.675,0.0
50841.0,STARLINK-3300,PAYLOAD,2022-07-31 16:56:08,15.08838991,0.0001585,53.2195,331.2887,54.5401,305.5738,0.00012725,1.738e-05,0.0,0 STARLINK-3300,1 50841U 22001AQ  22212.70564918  .00001738  00000-0  12725-3 0  9991,2 50841  53.2195 331.2887 0001585  54.5401 305.5738 15.08838991 31440,6917.8830000000025,95.438,540.845,538.6519999999998,0.0
50841.0,STARLINK-3300,PAYLOAD,2022-08-01 10:25:23,15.08836179,0.0001617,53.2195,328.01800000000014,56.3861,303.7285,4.1864e-05,3.78e-06,0.0,0 STARLINK-3300,1 50841U 22001AQ  22213.43429506  .00000378  00000-0  41864-4 0  9991,2 50841  53.2195 328.0180 0001617  56.3861 303.7285 15.08836179 31551,6917.892,95.438,540.876,538.638,0.0
50841.0,STARLINK-3300,PAYLOAD,2022-08-01 16:46:55,15.0883297,0.0001614,53.2195,326.8286,55.9938,304.1207,7.2759e-06,-1.72e-06,0.0,0 STARLINK-3300,1 50841U 22001AQ  22213.69925885 -.00000172  00000-0  72759-5 0  9991,2 50841  53.2195 326.8286 0001614  55.9938 304.1207 15.08832970 31599,6917.901999999999,95.438,540.883,538.65,0.0
50841.0,STARLINK-3300,PAYLOAD,2022-08-02 13:26:56,15.08842792,0.0001554999999999,53.2192,322.9627,54.4587,305.655,4.524899999999999e-05,4.32e-06,0.0,0 STARLINK-3300,1 50841U 22001AQ  22214.56037167  .00000432  00000-0  45249-4 0  9996,2 50841  53.2192 322.9627 0001555  54.4587 305.6550 15.08842792 33020,6917.871999999999,95.437,540.813,538.661,0.0
50841.0,STARLINK-3300,PAYLOAD,2022-08-03 11:42:19,15.08845964,0.0001518,53.2193,318.8001,52.2198,307.8932,0.000125,1.702e-05,0.0,0 STARLINK-3300,1 50841U 22001AQ  22215.48772452  .00001702  00000-0  12500-3 0  9995,2 50841  53.2193 318.8001 0001518  52.2198 307.8932 15.08845964 31866,6917.861999999999,95.437,540.7769999999998,538.677,0.0
50841.0,STARLINK-3300,PAYLOAD,2022-08-03 16:28:28,15.08843712,0.0001582,53.2194,317.9089,52.8271,307.2866,0.00011137,1.485e-05,0.0,0 STARLINK-3300,1 50841U 22001AQ  22215.68644607  .00001485  00000-0  11137-3 0  9990,2 50841  53.2194 317.9089 0001582  52.8271 307.2866 15.08843712 33199,6917.869000000002,95.437,540.828,538.64,0.0
50841.0,STARLINK-3300,PAYLOAD,2022-08-04 11:33:06,15.08839949,0.0001483,53.219,314.3399,48.6501,311.4618,2.0701e-05,4.2e-07,0.0,0 STARLINK-3300,1 50841U 22001AQ  22216.48133070  .00000042  00000-0  20701-4 0  9992,2 50841  53.2190 314.3399 0001483  48.6501 311.4618 15.08839949 33312,6917.880999999999,95.438,540.771,538.72,0.0
50841.0,STARLINK-3300,PAYLOAD,2022-08-04 13:08:29,15.08842029,0.0001443999999999,53.2186,314.0419,49.3568,310.755,2.0094e-05,3.2e-07,0.0,0 STARLINK-3300,1 50841U 22001AQ  22216.54756936  .00000032  00000-0  20094-4 0  9995,2 50841  53.2186 314.0419 0001444  49.3568 310.7550 15.08842029 32022,6917.874,95.437,540.738,538.74,0.0
50841.0,STARLINK-3300,PAYLOAD,2022-08-04 16:19:16,15.08842931,0.000149,53.2191,313.4479,49.6703,310.442,4.2287e-05,3.85e-06,0.0,0 STARLINK-3300,1 50841U 22001AQ  22216.68004810  .00000385  00000-0  42287-4 0  9996,2 50841  53.2191 313.4479 0001490  49.6703 310.4420 15.08842931 32049,6917.871,95.437,540.7669999999998,538.706,0.0
50841.0,STARLINK-3300,PAYLOAD,2022-08-05 11:23:54,15.08841486,0.0001521999999999,53.2187,309.8797,45.6728,314.4389,-4.7515e-05,-1.044e-05,0.0,0 STARLINK-3300,1 50841U 22001AQ  22217.47493108 -.00001044  00000-0 -47515-4 0  9990,2 50841  53.2187 309.8797 0001522  45.6728 314.4389 15.08841486 32160,6917.876,95.437,540.794,538.688,0.0
50841.0,STARLINK-3300,PAYLOAD,2022-08-05 17:45:26,15.08840232,0.0001517,53.2189,308.6906,44.7895,315.322,-4.4977e-05,-1.004e-05,0.0,0 STARLINK-3300,1 50841U 22001AQ  22217.73989178 -.00001004  00000-0 -44977-4 0  9991,2 50841  53.2189 308.6906 0001517  44.7895 315.3220 15.08840232 33501,6917.88,95.438,540.794,538.695,0.0
50841.0,STARLINK-3300,PAYLOAD,2022-08-06 12:50:04,15.08840134,0.0001547,53.2189,305.1225,49.7899,310.3228,5.9159e-05,6.54e-06,0.0,0 STARLINK-3300,1 50841U 22001AQ  22218.53477058  .00000654  00000-0  59159-4 0  9995,2 50841  53.2189 305.1225 0001547  49.7899 310.3228 15.08840134 32322,6917.88,95.438,540.815,538.675,0.0
50841.0,STARLINK-3300,PAYLOAD,2022-08-06 16:00:50,15.08842617,0.0001549,53.2188,304.5276,49.2864,310.8262,6.2232e-05,7.03e-06,0.0,0 STARLINK-3300,1 50841U 22001AQ  22218.66724889  .00000703  00000-0  62232-4 0  9997,2 50841  53.2188 304.5276 0001549  49.2864 310.8262 15.08842617 32342,6917.871999999999,95.437,540.809,538.6659999999998,0.0
50841.0,STARLINK-3300,PAYLOAD,2022-08-06 22:22:22,15.08844816,0.0001584,53.2189,303.3382,49.0125,311.1004,7.5831e-05,9.19e-06,0.0,0 STARLINK-3300,1 50841U 22001AQ  22218.93220691  .00000919  00000-0  75831-4 0  9997,2 50841  53.2189 303.3382 0001584  49.0125 311.1004 15.08844816 33684,6917.866,95.437,540.826,538.635,0.0
50841.0,STARLINK-3300,PAYLOAD,2022-08-07 12:40:52,15.08830045,0.000165,53.2195,300.6632,59.6689,300.4466,1.8653e-05,9e-08,0.0,0 STARLINK-3300,1 50841U 22001AQ  22219.52838106  .00000009  00000-0  18653-4 0  9998,2 50841  53.2195 300.6632 0001650  59.6689 300.4466 15.08830045 33777,6917.911,95.438,540.9169999999998,538.634,0.0
50841.0,STARLINK-3300,PAYLOAD,2022-08-07 15:51:38,15.08833707,0.0001676999999999,53.2187,300.0673,52.5543,307.5601,6.0298e-05,6.72e-06,0.0,0 STARLINK-3300,1 50841U 22001AQ  22219.66085855  .00000672  00000-0  60298-4 0  9996,2 50841  53.2187 300.0673 0001677  52.5543 307.5601 15.08833707 32492,6917.9,95.438,540.925,538.604,0.0
50841.0,STARLINK-3300,PAYLOAD,2022-08-08 10:56:14,15.08851394,0.0001716,53.2188,296.4993,53.9185,306.1966,0.00014981,2.098e-05,0.0,0 STARLINK-3300,1 50841U 22001AQ  22220.45572768  .00002098  00000-0  14981-3 0  9990,2 50841  53.2188 296.4993 0001716  53.9185 306.1966 15.08851394 33916,6917.846,95.437,540.898,538.523,0.0
50841.0,STARLINK-3300,PAYLOAD,2022-08-08 15:42:24,15.08856053,0.0001756,53.2178,295.6067,52.8194,307.2958,0.00026925,4.001e-05,0.0,0 STARLINK-3300,1 50841U 22001AQ  22220.65444576  .00004001  00000-0  26925-3 0  9994,2 50841  53.2178 295.6067 0001756  52.8194 307.2958 15.08856053 32649,6917.831,95.437,540.911,538.482,0.0
50841.0,STARLINK-3300,PAYLOAD,2022-08-09 09:11:38,15.08851754,0.0001656,53.2175,292.3358,55.8115,304.3034,0.0002346999999999,3.45e-05,0.0,0 STARLINK-3300,1 50841U 22001AQ  22221.38308405  .00003450  00000-0  23470-3 0  9994,2 50841  53.2175 292.3358 0001656  55.8115 304.3034 15.08851754 32756,6917.844,95.437,540.855,538.564,0.0
50841.0,STARLINK-3300,PAYLOAD,2022-08-09 13:57:48,15.08839074,0.0001727,53.2177,291.4438,54.8395,305.2759,-0.00015307,-2.723e-05,0.0,0 STARLINK-3300,1 50841U 22001AQ  22221.58180673 -.00002723  00000-0 -15307-3 0  9995,2 50841  53.2177 291.4438 0001727  54.8395 305.2759 15.08839074 34088,6917.8830000000025,95.438,540.943,538.554,0.0
50841.0,STARLINK-3300,PAYLOAD,2022-08-10 12:13:13,15.0883543,0.0001706,53.2184,287.2805,53.8183,306.2967,-0.00011868,-2.176e-05,0.0,0 STARLINK-3300,1 50841U 22001AQ  22222.50918070 -.00002176  00000-0 -11868-3 0  9998,2 50841  53.2184 287.2805 0001706  53.8183 306.2967 15.08835430 32923,6917.894,95.438,540.94,538.5790000000002,0.0
50841.0,STARLINK-3300,PAYLOAD,2022-08-10 13:48:36,15.08835228,0.0001710999999999,53.2184,286.9832,53.6547,306.4603,-0.00012128,-2.217e-05,0.0,0 STARLINK-3300,1 50841U 22001AQ  22222.57542094 -.00002217  00000-0 -12128-3 0  9990,2 50841  53.2184 286.9832 0001711  53.6547 306.4603 15.08835228 34237,6917.895,95.438,540.944,538.576,0.0
50841.0,STARLINK-3300,PAYLOAD,2022-08-10 15:23:59,15.08835315,0.0001710999999999,53.2182,286.6857,52.9885,307.1263,-0.000108,-2.006e-05,0.0,0 STARLINK-3300,1 50841U 22001AQ  22222.64166045 -.00002006  00000-0 -10800-3 0  9997,2 50841  53.2182 286.6857 0001711  52.9885 307.1263 15.08835315 32949,6917.895,95.438,540.943,538.576,0.0
50841.0,STARLINK-3300,PAYLOAD,2022-08-11 04:07:03,15.08872812,0.0001554999999999,53.2177,284.3065,58.1803,301.934,-0.0005532,-9.089e-05,0.0,0 STARLINK-3300,1 50841U 22001AQ  22223.17156658 -.00009089  00000-0 -55320-3 0  9999,2 50841  53.2177 284.3065 0001555  58.1803 301.9340 15.08872812 34328,6917.78,95.435,540.721,538.569,0.0
50841.0,STARLINK-3300,PAYLOAD,2022-08-11 12:04:00,15.08832212,0.0001749,53.218,282.8199,51.3094,308.8054,5.1054e-05,5.24e-06,0.0,0 STARLINK-3300,1 50841U 22001AQ  22223.50277821  .00000524  00000-0  51054-4 0  9996,2 50841  53.2180 282.8199 0001749  51.3094 308.8054 15.08832212 33074,6917.904,95.438,540.979,538.559,0.0
50841.0,STARLINK-3300,PAYLOAD,2022-08-11 15:14:46,15.08833813,0.0001763,53.218,282.2252,50.6057,309.5091,6.1766e-05,6.95e-06,0.0,0 STARLINK-3300,1 50841U 22001AQ  22223.63525756  .00000695  00000-0  61766-4 0  9993,2 50841  53.2180 282.2252 0001763  50.6057 309.5091 15.08833813 34398,6917.899,95.438,540.984,538.545,0.0
